IRIDIUM 159             
1 43578U 18061K   25299.69100105  .00000045  00000+0  91281-5 0  9996
2 43578  86.3990 154.3220 0002145  88.9701 271.1741 14.34217786379911
IRIDIUM 180             
1 43922U 19002A   25299.83003301  .00000377  00000+0  12753-3 0  9994
2 43922  86.3926  91.1558 0002189  89.6387 270.5059 14.34218902355540
IRIDIUM 176             
1 43923U 19002B   25299.82584568  .00001379  00000+0  21485-3 0  9998
2 43923  86.6050  91.1348 0002079  73.2302 286.9143 14.72253632364910
IRIDIUM 168             
1 43924U 19002C   25299.82369035  .00000109  00000+0  31772-4 0  9990
2 43924  86.3929  91.2293 0002114  89.9940 270.1498 14.34217989355523
IRIDIUM 173             
1 43925U 19002D   25299.81100444  .00000418  00000+0  14230-3 0  9999
2 43925  86.3926  91.1329 0002180  87.3177 272.8268 14.34218448355500
IRIDIUM 169             
1 43926U 19002E   25299.75351492  .00000180  00000+0  52178-4 0  9994
2 43926  86.4194 122.8060 0002492  57.1157 303.0281 14.38610530356664
IRIDIUM 172             
1 43927U 19002F   25299.80466347  .00000314  00000+0  10496-3 0  9992
2 43927  86.3926  91.1427 0002306  93.9845 266.1614 14.34218807355517
IRIDIUM 175             
1 43928U 19002G   25299.68510478  .00001670  00000+0  26084-3 0  9990
2 43928  86.1534  36.2435 0001329 103.3712 256.7653 14.72251386364882
